start=new Date('2021-08-31T00:00:00.000Z').valueOf();
sats=[{"CENTER_NAME":"EARTH","SITE":"AFETR","TLE_LINE1":"1 48366U 21038P   21242.40664310 -.00000571  00000-0 -19464-4 0  9999","EPOCH":"2021-08-30T09:45:33.963840","OBJECT_TYPE":"PAYLOAD","CLASSIFICATION_TYPE":"U","REF_FRAME":"TEME","OBJECT_ID":"2021-038P","BSTAR":"-0.00001946400000","ELEMENT_SET_NO":"999","FILE":"3105635","LAUNCH_DATE":"2021-05-04","MEAN_ELEMENT_THEORY":"SGP4","ECCENTRICITY":"0.00013730","NORAD_CAT_ID":"48366","OBJECT_NAME":"STARLINK-2631","PERIOD":"95.593","ARG_OF_PERICENTER":"49.2997","MEAN_MOTION":"15.06392085","INCLINATION":"53.0543","SEMIMAJOR_AXIS":"6925.373","RA_OF_ASC_NODE":"208.9933","PERIAPSIS":"546.287","DECAY_DATE":null,"TIME_SYSTEM":"UTC","EPHEMERIS_TYPE":"0","RCS_SIZE":"LARGE","MEAN_MOTION_DDOT":"0.0000000000000","GP_ID":"183733282","REV_AT_EPOCH":"1812","MEAN_ANOMALY":"310.8111","MEAN_MOTION_DOT":"-0.00000571","APOAPSIS":"548.189","COUNTRY_CODE":"US","TLE_LINE2":"2 48366  53.0543 208.9933 0001373  49.2997 310.8111 15.06392085 18123"},{"OBJECT_ID":"2021-038Q","EPOCH":"2021-08-30T09:40:15.488256","SITE":"AFETR","TLE_LINE1":"1 48367U 21038Q   21242.40295704 -.00001071  00000-0 -53002-4 0  9999","CENTER_NAME":"EARTH","OBJECT_TYPE":"PAYLOAD","CLASSIFICATION_TYPE":"U","REF_FRAME":"TEME","ECCENTRICITY":"0.00015210","MEAN_ELEMENT_THEORY":"SGP4","FILE":"3105635","LAUNCH_DATE":"2021-05-04","ELEMENT_SET_NO":"999","PERIOD":"95.593","ARG_OF_PERICENTER":"56.5673","MEAN_MOTION":"15.06393337","OBJECT_NAME":"STARLINK-2643","NORAD_CAT_ID":"48367","BSTAR":"-0.00005300200000","TIME_SYSTEM":"UTC","MEAN_MOTION_DDOT":"0.0000000000000","RCS_SIZE":"LARGE","EPHEMERIS_TYPE":"0","SEMIMAJOR_AXIS":"6925.369","INCLINATION":"53.0560","DECAY_DATE":null,"PERIAPSIS":"546.181","RA_OF_ASC_NODE":"209.0070","COUNTRY_CODE":"US","TLE_LINE2":"2 48367  53.0560 209.0070 0001521  56.5673 303.5461 15.06393337 18122","REV_AT_EPOCH":"1812","GP_ID":"183733287","APOAPSIS":"548.287","MEAN_MOTION_DOT":"-0.00001071","MEAN_ANOMALY":"303.5461"},{"TLE_LINE1":"1 48368U 21038R   21242.42045304 -.00005208  00000-0 -33102-3 0  9995","SITE":"AFETR","CENTER_NAME":"EARTH","EPOCH":"2021-08-30T10:05:27.142656","REF_FRAME":"TEME","OBJECT_TYPE":"PAYLOAD","CLASSIFICATION_TYPE":"U","OBJECT_ID":"2021-038R","BSTAR":"-0.00033102000000","MEAN_ELEMENT_THEORY":"SGP4","FILE":"3105635","LAUNCH_DATE":"2021-05-04","ELEMENT_SET_NO":"999","ECCENTRICITY":"0.00016220","NORAD_CAT_ID":"48368","MEAN_MOTION":"15.06395081","PERIOD":"95.592","ARG_OF_PERICENTER":"46.1850","OBJECT_NAME":"STARLINK-2623","INCLINATION":"53.0540","SEMIMAJOR_AXIS":"6925.364","PERIAPSIS":"546.105","RA_OF_ASC_NODE":"208.9310","DECAY_DATE":null,"TIME_SYSTEM":"UTC","EPHEMERIS_TYPE":"0","MEAN_MOTION_DDOT":"0.0000000000000","RCS_SIZE":"LARGE","GP_ID":"183733222","REV_AT_EPOCH":"1813","MEAN_ANOMALY":"313.9273","MEAN_MOTION_DOT":"-0.00005208","APOAPSIS":"548.352","COUNTRY_CODE":"US","TLE_LINE2":"2 48368  53.0540 208.9310 0001622  46.1850 313.9273 15.06395081 18135"},{"OBJECT_ID":"2021-038S","EPOCH":"2021-08-30T09:34:56.043264","CENTER_NAME":"EARTH","SITE":"AFETR","TLE_LINE1":"1 48369U 21038S   21242.39925976  .00001263  00000-0  10365-3 0  9995","REF_FRAME":"TEME","OBJECT_TYPE":"PAYLOAD","CLASSIFICATION_TYPE":"U","ECCENTRICITY":"0.00014800","ELEMENT_SET_NO":"999","FILE":"3105635","LAUNCH_DATE":"2021-05-04","MEAN_ELEMENT_THEORY":"SGP4","OBJECT_NAME":"STARLINK-2641","PERIOD":"95.592","MEAN_MOTION":"15.06398335","ARG_OF_PERICENTER":"52.4829","NORAD_CAT_ID":"48369","BSTAR":"0.00010365000000","TIME_SYSTEM":"UTC","RCS_SIZE":"LARGE","MEAN_MOTION_DDOT":"0.0000000000000","EPHEMERIS_TYPE":"0","SEMIMAJOR_AXIS":"6925.354","INCLINATION":"53.0495","DECAY_DATE":null,"RA_OF_ASC_NODE":"209.0457","PERIAPSIS":"546.194","COUNTRY_CODE":"US","TLE_LINE2":"2 48369  53.0495 209.0457 0001480  52.4829 307.6294 15.06398335 18124","REV_AT_EPOCH":"1812","GP_ID":"183733040","APOAPSIS":"548.244","MEAN_MOTION_DOT":"0.00001263","MEAN_ANOMALY":"307.6294"},{"TLE_LINE2":"2 48370  53.0543 208.4478 0001511  47.1207 312.9909 15.06391293 18142","COUNTRY_CODE":"US","MEAN_MOTION_DOT":"-0.00002207","APOAPSIS":"548.287","MEAN_ANOMALY":"312.9909","REV_AT_EPOCH":"1814","GP_ID":"183733129","MEAN_MOTION_DDOT":"0.0000000000000","RCS_SIZE":"LARGE","EPHEMERIS_TYPE":"0","TIME_SYSTEM":"UTC","DECAY_DATE":null,"PERIAPSIS":"546.194","RA_OF_ASC_NODE":"208.4478","SEMIMAJOR_AXIS":"6925.375","INCLINATION":"53.0543","MEAN_MOTION":"15.06391293","PERIOD":"95.593","ARG_OF_PERICENTER":"47.1207","OBJECT_NAME":"STARLINK-2621","NORAD_CAT_ID":"48370","ECCENTRICITY":"0.00015110","FILE":"3105635","MEAN_ELEMENT_THEORY":"SGP4","LAUNCH_DATE":"2021-05-04","ELEMENT_SET_NO":"999","BSTAR":"-0.00012936000000","OBJECT_ID":"2021-038T","REF_FRAME":"TEME","OBJECT_TYPE":"PAYLOAD","CLASSIFICATION_TYPE":"U","EPOCH":"2021-08-30T12:40:42.985920","SITE":"AFETR","TLE_LINE1":"1 48370U 21038T   21242.52827530 -.00002207  00000-0 -12936-3 0  9996","CENTER_NAME":"EARTH"},{"ECCENTRICITY":"0.00012340","FILE":"3105635","LAUNCH_DATE":"2021-05-04","MEAN_ELEMENT_THEORY":"SGP4","ELEMENT_SET_NO":"999","PERIOD":"95.593","MEAN_MOTION":"15.06382042","ARG_OF_PERICENTER":"46.5189","OBJECT_NAME":"STARLINK-2589","NORAD_CAT_ID":"48371","BSTAR":"0.00009731900000","OBJECT_ID":"2021-038U","EPOCH":"2021-08-30T03:02:11.646816","SITE":"AFETR","TLE_LINE1":"1 48371U 21038U   21242.12652369  .00001168  00000-0  97319-4 0  9991","CENTER_NAME":"EARTH","REF_FRAME":"TEME","OBJECT_TYPE":"PAYLOAD","CLASSIFICATION_TYPE":"U","COUNTRY_CODE":"US","TLE_LINE2":"2 48371  53.0552 210.2505 0001234  46.5189 313.5902 15.06382042 18084","REV_AT_EPOCH":"1808","GP_ID":"183732947","MEAN_MOTION_DOT":"0.00001168","APOAPSIS":"548.123","MEAN_ANOMALY":"313.5902","TIME_SYSTEM":"UTC","MEAN_MOTION_DDOT":"0.0000000000000","RCS_SIZE":"LARGE","EPHEMERIS_TYPE":"0","SEMIMAJOR_AXIS":"6925.404","INCLINATION":"53.0552","DECAY_DATE":null,"PERIAPSIS":"546.414","RA_OF_ASC_NODE":"210.2505"},{"APOAPSIS":"548.250","MEAN_MOTION_DOT":"-0.00000454","MEAN_ANOMALY":"306.2738","REV_AT_EPOCH":"1812","GP_ID":"183733563","TLE_LINE2":"2 48372  53.0551 209.0726 0001464  53.8387 306.2738 15.06392770 18121","COUNTRY_CODE":"US","DECAY_DATE":null,"PERIAPSIS":"546.222","RA_OF_ASC_NODE":"209.0726","SEMIMAJOR_AXIS":"6925.371","INCLINATION":"53.0551","MEAN_MOTION_DDOT":"0.0000000000000","RCS_SIZE":"LARGE","EPHEMERIS_TYPE":"0","TIME_SYSTEM":"UTC","BSTAR":"-0.00001158900000","MEAN_MOTION":"15.06392770","PERIOD":"95.593","ARG_OF_PERICENTER":"53.8387","OBJECT_NAME":"STARLINK-2572","NORAD_CAT_ID":"48372","ECCENTRICITY":"0.00014640","FILE":"3105635","LAUNCH_DATE":"2021-05-04","MEAN_ELEMENT_THEORY":"SGP4","ELEMENT_SET_NO":"999","CLASSIFICATION_TYPE":"U","OBJECT_TYPE":"PAYLOAD","REF_FRAME":"TEME","EPOCH":"2021-08-30T09:19:01.737984","TLE_LINE1":"1 48372U 21038V   21242.38821456 -.00000454  00000-0 -11589-4 0  9999","SITE":"AFETR","CENTER_NAME":"EARTH","OBJECT_ID":"2021-038V"},{"NORAD_CAT_ID":"48373","OBJECT_NAME":"STARLINK-2609","PERIOD":"95.592","ARG_OF_PERICENTER":"52.4662","MEAN_MOTION":"15.06403994","ELEMENT_SET_NO":"999","FILE":"3105635","LAUNCH_DATE":"2021-05-04","MEAN_ELEMENT_THEORY":"SGP4","ECCENTRICITY":"0.00012940","BSTAR":"0.00000924340000","OBJECT_ID":"2021-038W","REF_FRAME":"TEME","OBJECT_TYPE":"PAYLOAD","CLASSIFICATION_TYPE":"U","CENTER_NAME":"EARTH","SITE":"AFETR","TLE_LINE1":"1 48373U 21038W   21242.25183651 -.00000144  00000-0  92434-5 0  9998","EPOCH":"2021-08-30T06:02:38.674464","TLE_LINE2":"2 48373  53.0564 209.6856 0001294  52.4662 307.6444 15.06403994 18106","COUNTRY_CODE":"US","MEAN_ANOMALY":"307.6444","APOAPSIS":"548.097","MEAN_MOTION_DOT":"-0.00000144","GP_ID":"183733381","REV_AT_EPOCH":"1810","EPHEMERIS_TYPE":"0","RCS_SIZE":"LARGE","MEAN_MOTION_DDOT":"0.0000000000000","TIME_SYSTEM":"UTC","RA_OF_ASC_NODE":"209.6856","PERIAPSIS":"546.305","DECAY_DATE":null,"INCLINATION":"53.0564","SEMIMAJOR_AXIS":"6925.336"},{"TLE_LINE2":"2 48374  53.0550 209.7007 0001344  51.6906 308.4203 15.06392337 18109","COUNTRY_CODE":"US","MEAN_ANOMALY":"308.4203","APOAPSIS":"548.168","MEAN_MOTION_DOT":"-0.00000143","GP_ID":"183733470","REV_AT_EPOCH":"1810","EPHEMERIS_TYPE":"0","RCS_SIZE":"LARGE","MEAN_MOTION_DDOT":"0.0000000000000","TIME_SYSTEM":"UTC","RA_OF_ASC_NODE":"209.7007","PERIAPSIS":"546.306","DECAY_DATE":null,"INCLINATION":"53.0550","SEMIMAJOR_AXIS":"6925.372","NORAD_CAT_ID":"48374","OBJECT_NAME":"STARLINK-2604","ARG_OF_PERICENTER":"51.6906","PERIOD":"95.593","MEAN_MOTION":"15.06392337","ELEMENT_SET_NO":"999","LAUNCH_DATE":"2021-05-04","FILE":"3105635","MEAN_ELEMENT_THEORY":"SGP4","ECCENTRICITY":"0.00013440","BSTAR":"0.00000928820000","OBJECT_ID":"2021-038X","OBJECT_TYPE":"PAYLOAD","REF_FRAME":"TEME","CLASSIFICATION_TYPE":"U","CENTER_NAME":"EARTH","TLE_LINE1":"1 48374U 21038X   21242.24814785 -.00000143  00000-0  92882-5 0  9993","SITE":"AFETR","EPOCH":"2021-08-30T05:57:19.974240"},{"MEAN_MOTION":"15.06405791","PERIOD":"95.592","ARG_OF_PERICENTER":"49.8160","OBJECT_NAME":"STARLINK-2603","NORAD_CAT_ID":"48375","ECCENTRICITY":"0.00014940","MEAN_ELEMENT_THEORY":"SGP4","FILE":"3105635","LAUNCH_DATE":"2021-05-04","ELEMENT_SET_NO":"999","BSTAR":"0.00001456300000","OBJECT_ID":"2021-038Y","OBJECT_TYPE":"PAYLOAD","CLASSIFICATION_TYPE":"U","REF_FRAME":"TEME","EPOCH":"2021-08-30T04:16:28.010208","TLE_LINE1":"1 48375U 21038Y   21242.17810197 -.00000065  00000-0  14563-4 0  9991","SITE":"AFETR","CENTER_NAME":"EARTH","TLE_LINE2":"2 48375  53.0557 210.0179 0001494  49.8160 310.2960 15.06405791 18097","COUNTRY_CODE":"US","MEAN_MOTION_DOT":"-0.00000065","APOAPSIS":"548.230","MEAN_ANOMALY":"310.2960","REV_AT_EPOCH":"1809","GP_ID":"183733288","MEAN_MOTION_DDOT":"0.0000000000000","RCS_SIZE":"LARGE","EPHEMERIS_TYPE":"0","TIME_SYSTEM":"UTC","DECAY_DATE":null,"PERIAPSIS":"546.161","RA_OF_ASC_NODE":"210.0179","SEMIMAJOR_AXIS":"6925.331","INCLINATION":"53.0557"}];
